{
  "type": "FeatureCollection",
  "features": [
    {
      "type": "Feature",
      "properties": {
        "norad_id": 38867,
        "name": "INTELSAT 23 (IS-23)",
        "group": "intelsat",
        "lat": -0.02472505038628262,
        "lon": -33.287686198995296,
        "alt_km": 35783.51302431934,
        "timestamp": "2025-12-25T19:00:39.015937+00:00",
        "meta_object_name": "INTELSAT 23 (IS-23)",
        "meta_object_id": "2012-057A",
        "meta_epoch": "2025-12-25T04:25:47.526240",
        "meta_mean_motion": 1.00274029,
        "meta_eccentricity": 5.237e-05,
        "meta_inclination": 0.0134,
        "meta_ra_of_asc_node": 70.2161,
        "meta_arg_of_pericenter": 232.2564,
        "meta_mean_anomaly": 164.926,
        "meta_ephemeris_type": 0,
        "meta_classification_type": "U",
        "meta_norad_cat_id": 38867,
        "meta_element_set_no": 999,
        "meta_rev_at_epoch": 4821,
        "meta_bstar": 0,
        "meta_mean_motion_dot": -2.63e-06,
        "meta_mean_motion_ddot": 0,
        "tle_line1": "1 38867U 12057A   25359.18457785 -.00000263  00000+0  00000+0 0  9996",
        "tle_line2": "2 38867   0.0134  70.2161 0000523 232.2564 164.9260  1.00274029 48211"
      },
      "geometry": {
        "type": "Point",
        "coordinates": [
          -33.287686198995296,
          -0.02472505038628262
        ]
      }
    },
    {
      "type": "Feature",
      "properties": {
        "norad_id": 39360,
        "name": "FM-6",
        "group": "intelsat",
        "lat": -0.016091821066009246,
        "lon": -96.44052156961921,
        "alt_km": 35784.409257382154,
        "timestamp": "2025-12-25T19:00:39.015949+00:00",
        "meta_object_name": "FM-6",
        "meta_object_id": "2013-058A",
        "meta_epoch": "2025-12-25T02:39:08.527968",
        "meta_mean_motion": 1.00272868,
        "meta_eccentricity": 0.00026822,
        "meta_inclination": 0.0181,
        "meta_ra_of_asc_node": 75.0294,
        "meta_arg_of_pericenter": 105.4068,
        "meta_mean_anomaly": 197.0479,
        "meta_ephemeris_type": 0,
        "meta_classification_type": "U",
        "meta_norad_cat_id": 39360,
        "meta_element_set_no": 999,
        "meta_rev_at_epoch": 4432,
        "meta_bstar": 0,
        "meta_mean_motion_dot": 4e-08,
        "meta_mean_motion_ddot": 0,
        "tle_line1": "1 39360U 13058A   25359.11051537  .00000004  00000+0  00000+0 0  9997",
        "tle_line2": "2 39360   0.0181  75.0294 0002682 105.4068 197.0479  1.00272868 44326"
      },
      "geometry": {
        "type": "Point",
        "coordinates": [
          -96.44052156961921,
          -0.016091821066009246
        ]
      }
    },
    {
      "type": "Feature",
      "properties": {
        "norad_id": 40271,
        "name": "INTELSAT 30 (IS-30)",
        "group": "intelsat",
        "lat": -0.03402050248742258,
        "lon": -75.36816982529865,
        "alt_km": 35792.90417688257,
        "timestamp": "2025-12-25T19:00:39.015960+00:00",
        "meta_object_name": "INTELSAT 30 (IS-30)",
        "meta_object_id": "2014-062A",
        "meta_epoch": "2025-12-24T22:55:07.150368",
        "meta_mean_motion": 1.00269678,
        "meta_eccentricity": 0.00015108,
        "meta_inclination": 0.0145,
        "meta_ra_of_asc_node": 31.8875,
        "meta_arg_of_pericenter": 58.3804,
        "meta_mean_anomaly": 252.1734,
        "meta_ephemeris_type": 0,
        "meta_classification_type": "U",
        "meta_norad_cat_id": 40271,
        "meta_element_set_no": 999,
        "meta_rev_at_epoch": 504,
        "meta_bstar": 0,
        "meta_mean_motion_dot": -1.29e-06,
        "meta_mean_motion_ddot": 0,
        "tle_line1": "1 40271U 14062A   25358.95494387 -.00000129  00000+0  00000+0 0  9990",
        "tle_line2": "2 40271   0.0145  31.8875 0001510  58.3804 252.1734  1.00269678  5045"
      },
      "geometry": {
        "type": "Point",
        "coordinates": [
          -75.36816982529865,
          -0.03402050248742258
        ]
      }
    },
    {
      "type": "Feature",
      "properties": {
        "norad_id": 40333,
        "name": "DIRECTV 14",
        "group": "intelsat",
        "lat": -0.03282211095364578,
        "lon": -79.46809270929363,
        "alt_km": 35782.702740978006,
        "timestamp": "2025-12-25T19:00:39.015972+00:00",
        "meta_object_name": "DIRECTV 14",
        "meta_object_id": "2014-078B",
        "meta_epoch": "2025-12-24T12:37:43.773312",
        "meta_mean_motion": 1.00279829,
        "meta_eccentricity": 3.885e-05,
        "meta_inclination": 0.0184,
        "meta_ra_of_asc_node": 340.4706,
        "meta_arg_of_pericenter": 254.7884,
        "meta_mean_anomaly": 308.2619,
        "meta_ephemeris_type": 0,
        "meta_classification_type": "U",
        "meta_norad_cat_id": 40333,
        "meta_element_set_no": 999,
        "meta_rev_at_epoch": 4029,
        "meta_bstar": 0,
        "meta_mean_motion_dot": -1.06e-06,
        "meta_mean_motion_ddot": 0,
        "tle_line1": "1 40333U 14078B   25358.52620108 -.00000106  00000+0  00000+0 0  9996",
        "tle_line2": "2 40333   0.0184 340.4706 0000388 254.7884 308.2619  1.00279829 40291"
      },
      "geometry": {
        "type": "Point",
        "coordinates": [
          -79.46809270929363,
          -0.03282211095364578
        ]
      }
    },
    {
      "type": "Feature",
      "properties": {
        "norad_id": 40663,
        "name": "DIRECTV 15",
        "group": "intelsat",
        "lat": -0.04065406927222121,
        "lon": -83.2034582598856,
        "alt_km": 35787.94159322076,
        "timestamp": "2025-12-25T19:00:39.015984+00:00",
        "meta_object_name": "DIRECTV 15",
        "meta_object_id": "2015-026A",
        "meta_epoch": "2025-12-25T03:26:51.817056",
        "meta_mean_motion": 1.00266089,
        "meta_eccentricity": 2.884e-05,
        "meta_inclination": 0.0214,
        "meta_ra_of_asc_node": 23.9165,
        "meta_arg_of_pericenter": 151.045,
        "meta_mean_anomaly": 227.766,
        "meta_ephemeris_type": 0,
        "meta_classification_type": "U",
        "meta_norad_cat_id": 40663,
        "meta_element_set_no": 999,
        "meta_rev_at_epoch": 3871,
        "meta_bstar": 0,
        "meta_mean_motion_dot": 0,
        "meta_mean_motion_ddot": 0,
        "tle_line1": "1 40663U 15026A   25359.14365529  .00000000  00000+0  00000+0 0  9990",
        "tle_line2": "2 40663   0.0214  23.9165 0000288 151.0450 227.7660  1.00266089 38719"
      },
      "geometry": {
        "type": "Point",
        "coordinates": [
          -83.2034582598856,
          -0.04065406927222121
        ]
      }
    },
    {
      "type": "Feature",
      "properties": {
        "norad_id": 40664,
        "name": "SKY MEXICO-1",
        "group": "intelsat",
        "lat": -0.03313343355777964,
        "lon": -59.065660366692704,
        "alt_km": 35776.02371407608,
        "timestamp": "2025-12-25T19:00:39.015996+00:00",
        "meta_object_name": "SKY MEXICO-1",
        "meta_object_id": "2015-026B",
        "meta_epoch": "2025-12-25T05:41:31.709184",
        "meta_mean_motion": 1.00269983,
        "meta_eccentricity": 0.00025526,
        "meta_inclination": 0.0152,
        "meta_ra_of_asc_node": 8.8058,
        "meta_arg_of_pericenter": 281.657,
        "meta_mean_anomaly": 170.1492,
        "meta_ephemeris_type": 0,
        "meta_classification_type": "U",
        "meta_norad_cat_id": 40664,
        "meta_element_set_no": 999,
        "meta_rev_at_epoch": 3871,
        "meta_bstar": 0,
        "meta_mean_motion_dot": -2.13e-06,
        "meta_mean_motion_ddot": 0,
        "tle_line1": "1 40664U 15026B   25359.23717256 -.00000213  00000+0  00000+0 0  9996",
        "tle_line2": "2 40664   0.0152   8.8058 0002552 281.6570 170.1492  1.00269983 38713"
      },
      "geometry": {
        "type": "Point",
        "coordinates": [
          -59.065660366692704,
          -0.03313343355777964
        ]
      }
    },
    {
      "type": "Feature",
      "properties": {
        "norad_id": 40874,
        "name": "INTELSAT 34 (IS-34)",
        "group": "intelsat",
        "lat": -0.008769865774963782,
        "lon": -35.79822822288854,
        "alt_km": 35789.045924460515,
        "timestamp": "2025-12-25T19:00:39.016007+00:00",
        "meta_object_name": "INTELSAT 34 (IS-34)",
        "meta_object_id": "2015-039A",
        "meta_epoch": "2025-12-25T06:11:50.951040",
        "meta_mean_motion": 1.00269695,
        "meta_eccentricity": 5.858e-05,
        "meta_inclination": 0.01,
        "meta_ra_of_asc_node": 325.014,
        "meta_arg_of_pericenter": 199.0452,
        "meta_mean_anomaly": 327.4248,
        "meta_ephemeris_type": 0,
        "meta_classification_type": "U",
        "meta_norad_cat_id": 40874,
        "meta_element_set_no": 999,
        "meta_rev_at_epoch": 3788,
        "meta_bstar": 0,
        "meta_mean_motion_dot": -2.64e-06,
        "meta_mean_motion_ddot": 0,
        "tle_line1": "1 40874U 15039A   25359.25822860 -.00000264  00000+0  00000+0 0  9999",
        "tle_line2": "2 40874   0.0100 325.0140 0000585 199.0452 327.4248  1.00269695 37883"
      },
      "geometry": {
        "type": "Point",
        "coordinates": [
          -35.79822822288854,
          -0.008769865774963782
        ]
      }
    }
  ]
}